OBJECT_NAME,OBJECT_ID,EPOCH,MEAN_MOTION,ECCENTRICITY,INCLINATION,RA_OF_ASC_NODE,ARG_OF_PERICENTER,MEAN_ANOMALY,EPHEMERIS_TYPE,CLASSIFICATION_TYPE,NORAD_CAT_ID,ELEMENT_SET_NO,REV_AT_EPOCH,BSTAR,MEAN_MOTION_DOT,MEAN_MOTION_DDOT
FLOCK 4BE-27,2024-149AX,2026-07-08T04:34:05.806272,15.34829838,.00032278,97.3818,271.0558,207.3134,152.7940,0,U,60513,999,10536,.18357988E-3,.6119E-4,0
FLOCK 4BE-9,2024-149AY,2026-07-07T17:43:01.803648,15.41438050,.00029805,97.3784,273.2170,192.5638,167.5535,0,U,60514,999,10548,.26835057E-3,.11145E-3,0
FLOCK 4BE-6,2024-149BA,2026-07-08T01:02:32.233632,15.40174807,.00036237,97.3782,272.8437,195.3162,164.7975,0,U,60516,999,10548,.22802309E-3,.9067E-4,0
FLOCK 4BE-14,2024-149BB,2026-07-07T17:56:49.200288,15.41681927,.00045857,97.3687,272.7009,201.2982,158.8075,0,U,60517,999,10549,.2695162E-3,.11287E-3,0
FLOCK 4BE-1,2024-149BC,2026-07-08T04:42:11.962656,15.43334861,.00043424,97.3771,274.5069,199.2903,160.8181,0,U,60518,999,10561,.26150818E-3,.11573E-3,0
FLOCK 4BE-28,2024-149BD,2026-07-06T05:40:18.369408,15.45698118,.00041881,97.3771,273.3050,219.3554,140.7391,0,U,60519,999,10538,.52926037E-3,.25518E-3,0
IPERDRONE.0,2024-149BE,2026-07-06T06:13:24.235392,15.69808668,.00042223,97.3767,281.4527,187.0911,173.0292,0,U,60520,999,10590,.77662499E-3,.93238E-3,0
TRANSPORTER-11 OBJECT BF,2024-149BF,2026-07-07T19:44:10.079232,16.00049137,.00079618,97.3754,286.5594,241.8620,118.1855,0,U,60521,999,10636,.93475873E-3,.475536E-2,.9995582E-4
CONNECTA IOT-2,2024-149BG,2026-07-08T10:51:52.821216,15.24156874,.00050357,97.3831,267.2777,241.5733,118.4997,0,U,60522,999,10513,.11316955E-3,.2683E-4,0
CONNECTA IOT-4,2024-149BJ,2026-07-08T11:38:06.946368,15.42981665,.00054492,97.3790,274.1174,197.2973,162.8090,0,U,60524,999,10561,.34968584E-3,.15332E-3,0
ORESAT0.5,2024-149BK,2026-07-08T11:38:05.551872,15.45918669,.00056347,97.3717,275.8224,186.5706,173.5470,0,U,60525,999,10576,.31473236E-3,.15237E-3,0
DEIMOS,2024-149BL,2026-07-08T03:22:18.785280,15.45003833,.00053977,97.3777,275.6016,194.4123,165.6973,0,U,60526,999,10568,.28728525E-3,.13469E-3,0
CUAVA-2,2024-149BM,2026-07-07T19:04:49.267488,15.36611750,.0006242,97.3718,270.3548,206.0427,154.0504,0,U,60527,999,10533,.23654703E-3,.8379E-4,0
ERNST,2024-149BN,2026-07-08T11:44:55.324608,15.39775678,.00055647,97.3801,273.3765,203.3651,156.7343,0,U,60528,999,10555,.24700883E-3,.9704E-4,0
TORO,2024-149BQ,2026-07-08T10:28:12.540864,14.96507375,.00015522,97.6786,263.7075,93.7438,266.3961,0,U,60530,999,10313,.11132473E-3,.1208E-4,0
HYPSO-2,2024-149BR,2026-07-07T16:42:14.807808,14.98904414,.00019125,97.6823,264.6570,108.2868,251.8563,0,U,60531,999,10312,.21835748E-3,.2581E-4,0
LEMU NGE,2024-149BS,2026-07-08T11:15:50.144832,14.95041040,.00006969,97.6829,263.9992,54.4507,305.6778,0,U,60532,999,10313,.12863971E-3,.1352E-4,0
LEMUR-2-STELLA,2024-149BT,2026-07-08T04:37:18.318432,15.12271376,.000106,97.6726,271.7449,111.1796,248.9548,0,U,60533,999,10367,.39237653E-3,.6723E-4,0
SATELIOT_2,2024-149BU,2026-07-08T11:47:15.592416,14.96443146,.00019517,97.6822,264.0586,86.0028,274.1417,0,U,60534,999,10315,.18002889E-3,.1985E-4,0
NIGHTJAR,2024-149BV,2026-07-08T11:38:47.092992,14.99138846,.00021499,97.6824,265.8927,108.6742,251.4715,0,U,60535,999,14606,.19786661E-3,.2347E-4,0
LEMUR-2-MARHISYAM,2024-149BW,2026-07-08T12:16:52.550976,15.11690447,.00027836,97.6873,272.5360,79.6906,280.4637,0,U,60536,999,10370,.46938852E-3,.7928E-4,0
SATELIOT_4,2024-149BX,2026-07-08T10:20:21.416352,14.96748000,.00016446,97.6735,263.5123,26.5599,333.5706,0,U,60537,999,10315,.14589724E-3,.1611E-4,0
PICO-02A021,2024-149BY,2026-07-08T11:10:16.733280,15.03459395,.0003196,97.6747,268.1176,319.1820,40.9166,0,U,60538,999,10293,.19799467E-3,.2635E-4,0
ICEYE-X43,2024-149BZ,2026-07-07T18:42:02.816928,14.99768892,.0007094,97.6813,265.4679,19.1548,340.9941,0,U,60539,999,10320,.16055843E-3,.1926E-4,0
HAWK-10A,2024-149CA,2026-07-07T18:18:57.399840,14.96579003,.00037304,97.6892,264.3210,31.0488,329.0954,0,U,60540,999,10306,.16560852E-3,.1828E-4,0
UMBRA-09,2024-149CB,2026-07-08T05:19:53.602752,15.18698807,.00019126,97.6970,276.7964,215.8066,144.3039,0,U,60541,999,10391,.38476028E-3,.7913E-4,0
QPS-SAR-8 (AMATERU-IV),2024-149CC,2026-07-08T11:31:31.106496,15.04358142,.00044268,97.6665,268.4534,62.1552,298.0122,0,U,60542,999,10347,.21980288E-3,.3005E-4,0
ARCTIC WEATHER SATELLITE,2024-149CD,2026-07-07T16:56:42.332928,14.89818207,.00033406,97.6792,258.5844,65.4677,294.6889,0,U,60543,999,10235,.74720802E-4,.664E-5,0
CAPELLA-15 (ACADIA-5),2024-149CE,2026-07-07T18:31:46.421184,14.92384542,.00037293,97.6767,261.1588,10.0044,350.1249,0,U,60544,999,10292,.20240742E-3,.2017E-4,0
HAWK-10B,2024-149CF,2026-07-08T03:56:25.812096,14.96579711,.00060833,97.6812,264.0491,38.8899,321.2760,0,U,60545,999,10312,.14800976E-3,.1628E-4,0
