FLOCK 4BE-27            
1 60513U 24149AX  26189.19034498  .00006119  00000+0  18358-3 0  9993
2 60513  97.3818 271.0558 0003227 207.3134 152.7940 15.34829838105369
FLOCK 4BE-9             
1 60514U 24149AY  26188.73821532  .00011145  00000+0  26835-3 0  9990
2 60514  97.3784 273.2170 0002980 192.5638 167.5535 15.41438050105482
FLOCK 4BE-6             
1 60516U 24149BA  26189.04342863  .00009067  00000+0  22802-3 0  9992
2 60516  97.3782 272.8437 0003623 195.3162 164.7975 15.40174807105484
FLOCK 4BE-14            
1 60517U 24149BB  26188.74779167  .00011287  00000+0  26952-3 0  9997
2 60517  97.3687 272.7009 0004585 201.2982 158.8075 15.41681927105491
FLOCK 4BE-1             
1 60518U 24149BC  26189.19597179  .00011573  00000+0  26151-3 0  9998
2 60518  97.3771 274.5069 0004342 199.2903 160.8181 15.43334861105611
FLOCK 4BE-28            
1 60519U 24149BD  26187.23632372  .00025518  00000+0  52926-3 0  9990
2 60519  97.3771 273.3050 0004188 219.3554 140.7391 15.45698118105387
IPERDRONE.0             
1 60520U 24149BE  26187.25930828  .00093238  00000+0  77662-3 0  9999
2 60520  97.3767 281.4527 0004222 187.0911 173.0292 15.69808668105906
TRANSPORTER-11 OBJECT BF
1 60521U 24149BF  26188.82233888  .00475536  99956-4  93476-3 0  9995
2 60521  97.3754 286.5594 0007961 241.8620 118.1855 16.00049137106362
CONNECTA IOT-2          
1 60522U 24149BG  26189.45269469  .00002683  00000+0  11317-3 0  9990
2 60522  97.3831 267.2777 0005035 241.5733 118.4997 15.24156874105136
CONNECTA IOT-4          
1 60524U 24149BJ  26189.48480262  .00015332  00000+0  34969-3 0  9994
2 60524  97.3790 274.1174 0005449 197.2973 162.8090 15.42981665105616
ORESAT0.5               
1 60525U 24149BK  26189.48478648  .00015237  00000+0  31473-3 0  9991
2 60525  97.3717 275.8224 0005634 186.5706 173.5470 15.45918669105765
DEIMOS                  
1 60526U 24149BL  26189.14049520  .00013469  00000+0  28729-3 0  9993
2 60526  97.3777 275.6016 0005397 194.4123 165.6973 15.45003833105685
CUAVA-2                 
1 60527U 24149BM  26188.79501467  .00008379  00000+0  23655-3 0  9994
2 60527  97.3718 270.3548 0006242 206.0427 154.0504 15.36611750105337
ERNST                   
1 60528U 24149BN  26189.48952922  .00009704  00000+0  24701-3 0  9994
2 60528  97.3801 273.3765 0005564 203.3651 156.7343 15.39775678105557
TORO                    
1 60530U 24149BQ  26189.43625626  .00001208  00000+0  11132-3 0  9995
2 60530  97.6786 263.7075 0001552  93.7438 266.3961 14.96507375103134
HYPSO-2                 
1 60531U 24149BR  26188.69600472  .00002581  00000+0  21836-3 0  9992
2 60531  97.6823 264.6570 0001912 108.2868 251.8563 14.98904414103129
LEMU NGE                
1 60532U 24149BS  26189.46933038  .00001352  00000+0  12864-3 0  9992
2 60532  97.6829 263.9992 0000696  54.4507 305.6778 14.95041040103137
LEMUR-2-STELLA          
1 60533U 24149BT  26189.19257313  .00006723  00000+0  39238-3 0  9999
2 60533  97.6726 271.7449 0001060 111.1796 248.9548 15.12271376103675
SATELIOT_2              
1 60534U 24149BU  26189.49115269  .00001985  00000+0  18003-3 0  9998
2 60534  97.6822 264.0586 0001951  86.0028 274.1417 14.96443146103153
NIGHTJAR                
1 60535U 24149BV  26189.48526728  .00002347  00000+0  19787-3 0  9997
2 60535  97.6824 265.8927 0002149 108.6742 251.4715 14.99138846146065
LEMUR-2-MARHISYAM       
1 60536U 24149BW  26189.51171934  .00007928  00000+0  46939-3 0  9996
2 60536  97.6873 272.5360 0002783  79.6906 280.4637 15.11690447103703
SATELIOT_4              
1 60537U 24149BX  26189.43080343  .00001611  00000+0  14590-3 0  9992
2 60537  97.6735 263.5123 0001644  26.5599 333.5706 14.96748000103159
PICO-02A021             
1 60538U 24149BY  26189.46547145  .00002635  00000+0  19799-3 0  9997
2 60538  97.6747 268.1176 0003196 319.1820  40.9166 15.03459395102933
ICEYE-X43               
1 60539U 24149BZ  26188.77919927  .00001926  00000+0  16056-3 0  9997
2 60539  97.6813 265.4679 0007094  19.1548 340.9941 14.99768892103205
HAWK-10A                
1 60540U 24149CA  26188.76316435  .00001828  00000+0  16561-3 0  9995
2 60540  97.6892 264.3210 0003730  31.0488 329.0954 14.96579003103069
UMBRA-09                
1 60541U 24149CB  26189.22214818  .00007913  00000+0  38476-3 0  9990
2 60541  97.6970 276.7964 0001912 215.8066 144.3039 15.18698807103919
QPS-SAR-8 (AMATERU-IV)  
1 60542U 24149CC  26189.48022114  .00003005  00000+0  21980-3 0  9995
2 60542  97.6665 268.4534 0004426  62.1552 298.0122 15.04358142103479
ARCTIC WEATHER SATELLITE
1 60543U 24149CD  26188.70604552  .00000664  00000+0  74721-4 0  9992
2 60543  97.6792 258.5844 0003340  65.4677 294.6889 14.89818207102356
CAPELLA-15 (ACADIA-5)   
1 60544U 24149CE  26188.77206506  .00002017  00000+0  20241-3 0  9998
2 60544  97.6767 261.1588 0003729  10.0044 350.1249 14.92384542102924
HAWK-10B                
1 60545U 24149CF  26189.16418764  .00001628  00000+0  14801-3 0  9996
2 60545  97.6812 264.0491 0006083  38.8899 321.2760 14.96579711103121
